ORBCOMM FM37            
1 33064U 08031E   25069.49418369  .00003049  00000+0  43481-3 0  9992
2 33064  48.4387  92.6552 0006514 308.1463 204.0743 14.79145177899431
ORBCOMM FM40            
1 33065U 08031F   25069.55110706  .00004137  00000+0  55240-3 0  9999
2 33065  48.4408  78.0180 0007777 320.6309 186.9147 14.81215646899978
VESSELSAT 1             
1 37840U 11058C   25069.89502474  .00000455  00000+0  10334-3 0  9995
2 37840  19.9631 328.6447 0013664 185.0460 174.9807 14.11319570692635
ORBCOMM FM109           
1 40086U 14040A   25069.51073489  .00001187  00000+0  29319-3 0  9999
2 40086  47.0026 122.2491 0002826 257.3288 102.7282 14.57893271566661
ORBCOMM FM107           
1 40087U 14040B   25069.47512984  .00001158  00000+0  28647-3 0  9994
2 40087  47.0044 123.4151 0001813 229.1608 130.9120 14.57952850566737
ORBCOMM FM106           
1 40088U 14040C   25069.83543910  .00002057  00000+0  37816-3 0  9995
2 40088  47.0604 311.6597 0017170 329.0000  30.9877 14.69026024569227
ORBCOMM FM111           
1 40089U 14040D   25069.51603697  .00005051  00000+0  59963-3 0  9994
2 40089  47.0007 176.5347 0029059  80.0731 280.3443 14.85426862575555
ORBCOMM FM104           
1 40090U 14040E   25069.56190679  .00001130  00000+0  28974-3 0  9994
2 40090  47.0045 155.4372 0015628 116.6336 243.6152 14.56395714566241
